start=new Date('2021-12-06T00:00:00.000Z').valueOf();
sats=[{"REV_AT_EPOCH":"369","GP_ID":"191171336","NORAD_CAT_ID":"48004","MEAN_MOTION":"15.90826093","MEAN_ANOMALY":"98.9922","LAUNCH_DATE":"2021-03-24","ELEMENT_SET_NO":"999","MEAN_MOTION_DOT":"-0.00045688","DECAY_DATE":null,"CENTER_NAME":"EARTH","ECCENTRICITY":"0.00015530","COUNTRY_CODE":"US","EPOCH":"2021-12-05T22:00:00.999936","REF_FRAME":"TEME","MEAN_ELEMENT_THEORY":"SGP4","SITE":"AFETR","INCLINATION":"53.0507","TLE_LINE2":"2 48004  53.0507   8.2259 0001553  28.6917  98.9922 15.90826093  3691","OBJECT_ID":"2021-024AD","PERIOD":"90.519","RCS_SIZE":"LARGE","MEAN_MOTION_DDOT":"0.0000116610000","RA_OF_ASC_NODE":"8.2259","FILE":"3233515","EPHEMERIS_TYPE":"0","OBJECT_TYPE":"PAYLOAD","SEMIMAJOR_AXIS":"6678.107","TLE_LINE1":"1 48004U 21024AD  21339.91667824 -.00045688  11661-4 -13176-3 0  9999","TIME_SYSTEM":"UTC","CLASSIFICATION_TYPE":"U","ARG_OF_PERICENTER":"28.6917","PERIAPSIS":"298.935","APOAPSIS":"301.009","BSTAR":"-0.00013176000000","OBJECT_NAME":"STARLINK-2261"},{"MEAN_MOTION":"15.06394788","MEAN_ANOMALY":"236.7834","LAUNCH_DATE":"2021-03-24","ELEMENT_SET_NO":"999","MEAN_MOTION_DOT":"-0.00000570","REV_AT_EPOCH":"4053","GP_ID":"191171086","NORAD_CAT_ID":"48005","EPOCH":"2021-12-05T14:55:33.076704","REF_FRAME":"TEME","MEAN_ELEMENT_THEORY":"SGP4","SITE":"AFETR","DECAY_DATE":null,"CENTER_NAME":"EARTH","ECCENTRICITY":"0.00019260","COUNTRY_CODE":"US","MEAN_MOTION_DDOT":"0.0000000000000","RA_OF_ASC_NODE":"87.5972","FILE":"3233515","EPHEMERIS_TYPE":"0","OBJECT_TYPE":"PAYLOAD","INCLINATION":"53.0559","TLE_LINE2":"2 48005  53.0559  87.5972 0001926 123.3339 236.7834 15.06394788 40532","OBJECT_ID":"2021-024AE","PERIOD":"95.592","RCS_SIZE":"LARGE","ARG_OF_PERICENTER":"123.3339","CLASSIFICATION_TYPE":"U","PERIAPSIS":"545.896","APOAPSIS":"548.563","BSTAR":"-0.00001936500000","OBJECT_NAME":"STARLINK-2254","SEMIMAJOR_AXIS":"6925.365","TLE_LINE1":"1 48005U 21024AE  21339.62191061 -.00000570  00000-0 -19365-4 0  9992","TIME_SYSTEM":"UTC"},{"MEAN_MOTION_DDOT":"0.0000118640000","RA_OF_ASC_NODE":"8.1952","FILE":"3233515","EPHEMERIS_TYPE":"0","OBJECT_TYPE":"PAYLOAD","INCLINATION":"53.0474","OBJECT_ID":"2021-024AG","TLE_LINE2":"2 48007  53.0474   8.1952 0001603  37.3234  94.0985 15.90959059  3696","PERIOD":"90.511","RCS_SIZE":"LARGE","CLASSIFICATION_TYPE":"U","ARG_OF_PERICENTER":"37.3234","APOAPSIS":"300.670","PERIAPSIS":"298.529","BSTAR":"-0.00015084000000","OBJECT_NAME":"STARLINK-2259","SEMIMAJOR_AXIS":"6677.735","TLE_LINE1":"1 48007U 21024AG  21339.91667824 -.00052130  11864-4 -15084-3 0  9997","TIME_SYSTEM":"UTC","MEAN_MOTION":"15.90959059","MEAN_ANOMALY":"94.0985","LAUNCH_DATE":"2021-03-24","MEAN_MOTION_DOT":"-0.00052130","ELEMENT_SET_NO":"999","REV_AT_EPOCH":"369","GP_ID":"191169834","NORAD_CAT_ID":"48007","EPOCH":"2021-12-05T22:00:00.999936","REF_FRAME":"TEME","MEAN_ELEMENT_THEORY":"SGP4","SITE":"AFETR","DECAY_DATE":null,"CENTER_NAME":"EARTH","ECCENTRICITY":"0.00016030","COUNTRY_CODE":"US"},{"REV_AT_EPOCH":"361","GP_ID":"191170585","NORAD_CAT_ID":"48008","MEAN_MOTION":"15.06378541","MEAN_ANOMALY":"358.2404","LAUNCH_DATE":"2021-03-24","ELEMENT_SET_NO":"999","MEAN_MOTION_DOT":"0.00021942","DECAY_DATE":null,"CENTER_NAME":"EARTH","COUNTRY_CODE":"US","ECCENTRICITY":"0.00015310","EPOCH":"2021-12-05T22:00:00.999936","MEAN_ELEMENT_THEORY":"SGP4","REF_FRAME":"TEME","SITE":"AFETR","INCLINATION":"53.0525","OBJECT_ID":"2021-024AH","TLE_LINE2":"2 48008  53.0525  21.2502 0001531  44.0276 358.2404 15.06378541  3613","PERIOD":"95.594","RCS_SIZE":"LARGE","RA_OF_ASC_NODE":"21.2502","MEAN_MOTION_DDOT":"0.0000000000000","FILE":"3233515","EPHEMERIS_TYPE":"0","OBJECT_TYPE":"PAYLOAD","SEMIMAJOR_AXIS":"6925.414","TLE_LINE1":"1 48008U 21024AH  21339.91667824  .00021942  00000-0  14882-2 0  9993","TIME_SYSTEM":"UTC","ARG_OF_PERICENTER":"44.0276","CLASSIFICATION_TYPE":"U","PERIAPSIS":"546.219","APOAPSIS":"548.340","BSTAR":"0.00148820000000","OBJECT_NAME":"STARLINK-2271"},{"RCS_SIZE":"LARGE","PERIOD":"95.592","TLE_LINE2":"2 48009  53.0550  96.9040 0001418  89.4202 270.6949 15.06403727 40420","OBJECT_ID":"2021-024AJ","INCLINATION":"53.0550","OBJECT_TYPE":"PAYLOAD","EPHEMERIS_TYPE":"0","FILE":"3233515","MEAN_MOTION_DDOT":"0.0000000000000","RA_OF_ASC_NODE":"96.9040","TIME_SYSTEM":"UTC","TLE_LINE1":"1 48009U 21024AJ  21339.77115905 -.00001293  00000-0 -67891-4 0  9995","SEMIMAJOR_AXIS":"6925.337","OBJECT_NAME":"STARLINK-2153","BSTAR":"-0.00006789100000","APOAPSIS":"548.184","PERIAPSIS":"546.220","CLASSIFICATION_TYPE":"U","ARG_OF_PERICENTER":"89.4202","NORAD_CAT_ID":"48009","GP_ID":"191170836","REV_AT_EPOCH":"4042","MEAN_MOTION_DOT":"-0.00001293","ELEMENT_SET_NO":"999","LAUNCH_DATE":"2021-03-24","MEAN_ANOMALY":"270.6949","MEAN_MOTION":"15.06403727","ECCENTRICITY":"0.00014180","COUNTRY_CODE":"US","CENTER_NAME":"EARTH","DECAY_DATE":null,"SITE":"AFETR","REF_FRAME":"TEME","MEAN_ELEMENT_THEORY":"SGP4","EPOCH":"2021-12-05T18:30:28.141920"},{"RCS_SIZE":"LARGE","TLE_LINE2":"2 48010  53.0522 117.4770 0001898  95.1279 264.9927 15.06395117 40122","OBJECT_ID":"2021-024AK","INCLINATION":"53.0522","PERIOD":"95.592","EPHEMERIS_TYPE":"0","OBJECT_TYPE":"PAYLOAD","FILE":"3233515","MEAN_MOTION_DDOT":"0.0000000000000","RA_OF_ASC_NODE":"117.4770","TIME_SYSTEM":"UTC","TLE_LINE1":"1 48010U 21024AK  21339.64862901 -.00000906  00000-0 -41930-4 0  9994","SEMIMAJOR_AXIS":"6925.364","OBJECT_NAME":"STARLINK-2226","CLASSIFICATION_TYPE":"U","ARG_OF_PERICENTER":"95.1279","BSTAR":"-0.00004193000000","APOAPSIS":"548.543","PERIAPSIS":"545.914","NORAD_CAT_ID":"48010","REV_AT_EPOCH":"4012","GP_ID":"191171587","LAUNCH_DATE":"2021-03-24","MEAN_MOTION_DOT":"-0.00000906","ELEMENT_SET_NO":"999","MEAN_ANOMALY":"264.9927","MEAN_MOTION":"15.06395117","ECCENTRICITY":"0.00018980","COUNTRY_CODE":"US","CENTER_NAME":"EARTH","DECAY_DATE":null,"MEAN_ELEMENT_THEORY":"SGP4","REF_FRAME":"TEME","SITE":"AFETR","EPOCH":"2021-12-05T15:34:01.546464"},{"OBJECT_TYPE":"PAYLOAD","EPHEMERIS_TYPE":"0","RA_OF_ASC_NODE":"96.7545","MEAN_MOTION_DDOT":"0.0000000000000","FILE":"3233515","RCS_SIZE":"LARGE","PERIOD":"95.592","INCLINATION":"53.0572","TLE_LINE2":"2 48011  53.0572  96.7545 0001375  92.1769 267.9378 15.06394941 40484","OBJECT_ID":"2021-024AL","OBJECT_NAME":"STARLINK-2272","APOAPSIS":"548.181","PERIAPSIS":"546.277","BSTAR":"-0.00000094274000","CLASSIFICATION_TYPE":"U","ARG_OF_PERICENTER":"92.1769","TLE_LINE1":"1 48011U 21024AL  21339.80433498 -.00000295  00000-0 -94274-6 0  9990","TIME_SYSTEM":"UTC","SEMIMAJOR_AXIS":"6925.364","ELEMENT_SET_NO":"999","MEAN_MOTION_DOT":"-0.00000295","LAUNCH_DATE":"2021-03-24","MEAN_MOTION":"15.06394941","MEAN_ANOMALY":"267.9378","NORAD_CAT_ID":"48011","GP_ID":"191170335","REV_AT_EPOCH":"4048","SITE":"AFETR","MEAN_ELEMENT_THEORY":"SGP4","REF_FRAME":"TEME","EPOCH":"2021-12-05T19:18:14.542272","ECCENTRICITY":"0.00013750","COUNTRY_CODE":"US","DECAY_DATE":null,"CENTER_NAME":"EARTH"},{"PERIAPSIS":"546.325","APOAPSIS":"548.163","BSTAR":"0.00004133500000","ARG_OF_PERICENTER":"70.4278","CLASSIFICATION_TYPE":"U","OBJECT_NAME":"STARLINK-2216","SEMIMAJOR_AXIS":"6925.379","TLE_LINE1":"1 48012U 21024AM  21339.74307793  .00000334  00000-0  41335-4 0  9992","TIME_SYSTEM":"UTC","RA_OF_ASC_NODE":"72.0347","MEAN_MOTION_DDOT":"0.0000000000000","FILE":"3233515","OBJECT_TYPE":"PAYLOAD","EPHEMERIS_TYPE":"0","PERIOD":"95.593","INCLINATION":"53.0571","OBJECT_ID":"2021-024AM","TLE_LINE2":"2 48012  53.0571  72.0347 0001327  70.4278 289.6854 15.06390158 40826","RCS_SIZE":"LARGE","EPOCH":"2021-12-05T17:50:01.933152","SITE":"AFETR","MEAN_ELEMENT_THEORY":"SGP4","REF_FRAME":"TEME","DECAY_DATE":null,"CENTER_NAME":"EARTH","ECCENTRICITY":"0.00013270","COUNTRY_CODE":"US","MEAN_MOTION":"15.06390158","MEAN_ANOMALY":"289.6854","MEAN_MOTION_DOT":"0.00000334","ELEMENT_SET_NO":"999","LAUNCH_DATE":"2021-03-24","GP_ID":"191170085","REV_AT_EPOCH":"4082","NORAD_CAT_ID":"48012"},{"OBJECT_NAME":"STARLINK-2243","ARG_OF_PERICENTER":"83.4581","CLASSIFICATION_TYPE":"U","BSTAR":"0.00001653100000","PERIAPSIS":"546.323","APOAPSIS":"548.148","TIME_SYSTEM":"UTC","TLE_LINE1":"1 48013U 21024AN  21339.56154534 -.00000035  00000-0  16531-4 0  9995","SEMIMAJOR_AXIS":"6925.371","EPHEMERIS_TYPE":"0","OBJECT_TYPE":"PAYLOAD","FILE":"3233472","RA_OF_ASC_NODE":"82.8633","MEAN_MOTION_DDOT":"0.0000000000000","RCS_SIZE":"LARGE","TLE_LINE2":"2 48013  53.0554  82.8633 0001318  83.4581 276.6558 15.06392827 40132","OBJECT_ID":"2021-024AN","INCLINATION":"53.0554","PERIOD":"95.593","MEAN_ELEMENT_THEORY":"SGP4","REF_FRAME":"TEME","SITE":"AFETR","EPOCH":"2021-12-05T13:28:37.517376","COUNTRY_CODE":"US","ECCENTRICITY":"0.00013180","CENTER_NAME":"EARTH","DECAY_DATE":null,"LAUNCH_DATE":"2021-03-24","ELEMENT_SET_NO":"999","MEAN_MOTION_DOT":"-0.00000035","MEAN_ANOMALY":"276.6558","MEAN_MOTION":"15.06392827","NORAD_CAT_ID":"48013","REV_AT_EPOCH":"4013","GP_ID":"191148343"},{"ECCENTRICITY":"0.00013340","COUNTRY_CODE":"US","DECAY_DATE":null,"CENTER_NAME":"EARTH","MEAN_ELEMENT_THEORY":"SGP4","REF_FRAME":"TEME","SITE":"AFETR","EPOCH":"2021-12-05T22:00:00.999936","NORAD_CAT_ID":"48014","REV_AT_EPOCH":"359","GP_ID":"191171087","LAUNCH_DATE":"2021-03-24","MEAN_MOTION_DOT":"-0.00057609","ELEMENT_SET_NO":"999","MEAN_MOTION":"15.05601729","MEAN_ANOMALY":"22.0907","TLE_LINE1":"1 48014U 21024AP  21339.91667824 -.00057609  00000-0 -39647-2 0  9997","TIME_SYSTEM":"UTC","SEMIMAJOR_AXIS":"6927.796","OBJECT_NAME":"STARLINK-2283","ARG_OF_PERICENTER":"77.8964","CLASSIFICATION_TYPE":"U","APOAPSIS":"550.585","PERIAPSIS":"548.737","BSTAR":"-0.00396470000000","RCS_SIZE":"LARGE","INCLINATION":"53.0542","OBJECT_ID":"2021-024AP","TLE_LINE2":"2 48014  53.0542  44.9336 0001334  77.8964  22.0907 15.05601729  3592","PERIOD":"95.643","EPHEMERIS_TYPE":"0","OBJECT_TYPE":"PAYLOAD","MEAN_MOTION_DDOT":"0.0000000000000","RA_OF_ASC_NODE":"44.9336","FILE":"3233515"}];
